     2              NAVIGATION DATA                         RINEX VERSION / TYPE
CCRINEXN V1.6.0 UX  CDDIS               18-MAR-24 06:42     PGM / RUN BY / DATE 
IGS BROADCAST EPHEMERIS FILE                                COMMENT             
    0.2608D-07  0.7451D-08 -0.1192D-06  0.0000D+00          ION ALPHA           
    0.1290D+06  0.0000D+00 -0.2621D+06  0.1311D+06          ION BETA            
    0.931322574615D-09 0.888178419700D-15   319488     2306 DELTA-UTC: A0,A1,T,W
    18                                                      LEAP SECONDS        
                                                            END OF HEADER       
 7 24  3 18  2  0  0.0-0.867238268256D-04-0.875388650456D-11 0.000000000000D+00
    0.590000000000D+02 0.434375000000D+01 0.469590988921D-08-0.291398281945D+01
    0.372529029846D-07 0.181641440140D-01 0.787526369095D-05 0.515365423584D+04
    0.936000000000D+05 0.158324837685D-06 0.134255969809D+00-0.229105353355D-06
    0.950700574209D+00 0.220000000000D+03-0.214203133821D+01-0.772746473707D-08
    0.146434671020D-09 0.100000000000D+01 0.230600000000D+04 0.000000000000D+00
    0.200000000000D+01 0.000000000000D+00-0.111758708954D-07 0.590000000000D+02
    0.864180000000D+05 0.400000000000D+01 0.000000000000D+00 0.000000000000D+00
 9 24  3 18  2  0  0.0 0.128288287669D-03 0.131876731757D-10 0.000000000000D+00
    0.410000000000D+02-0.529687500000D+02 0.449483008486D-08 0.373010427987D+00
   -0.287592411041D-05 0.270472478587D-02 0.857375562191D-05 0.515370539093D+04
    0.936000000000D+05-0.242143869400D-07-0.937746194699D+00-0.689178705216D-07
    0.957954915787D+00 0.212000000000D+03 0.200759546020D+01-0.796390315710D-08
    0.992898501065D-10 0.100000000000D+01 0.230600000000D+04 0.000000000000D+00
    0.200000000000D+01 0.000000000000D+00 0.139698386192D-08 0.410000000000D+02
    0.906720000000D+05 0.400000000000D+01 0.000000000000D+00 0.000000000000D+00
10 24  3 18  2  0  0.0-0.942498445511D-06-0.204636307899D-11 0.000000000000D+00
    0.980000000000D+02-0.833125000000D+02 0.405659754500D-08 0.191772533193D+01
   -0.437535345554D-05 0.929587951396D-02 0.511482357979D-05 0.515369150543D+04
    0.936000000000D+05-0.193715095520D-06-0.196092497804D+01-0.726431608200D-07
    0.982818661222D+00 0.297593750000D+03-0.236750190775D+01-0.791175812791D-08
   -0.210723063176D-10 0.100000000000D+01 0.230600000000D+04 0.000000000000D+00
    0.200000000000D+01 0.000000000000D+00 0.232830643654D-08 0.980000000000D+02
    0.875760000000D+05 0.400000000000D+01 0.000000000000D+00 0.000000000000D+00
11 24  3 18  2  0  0.0-0.609895214438D-03-0.115960574476D-10 0.000000000000D+00
    0.220000000000D+02 0.135312500000D+02 0.450625913235D-08-0.848379737416D+00
    0.761821866035D-06 0.122703891248D-02 0.368431210518D-05 0.515368129158D+04
    0.936000000000D+05-0.149011611938D-07-0.296025391766D+01-0.335276126862D-07
    0.966459800701D+00 0.312750000000D+03-0.248494942574D+01-0.819426989566D-08
    0.864321716755D-10 0.100000000000D+01 0.230600000000D+04 0.000000000000D+00
    0.200000000000D+01 0.000000000000D+00-0.838190317154D-08 0.278000000000D+03
    0.864180000000D+05 0.400000000000D+01 0.000000000000D+00 0.000000000000D+00
12 24  3 18  2  0  0.0-0.488162040710D-03-0.352429196937D-11 0.000000000000D+00
    0.690000000000D+02 0.435625000000D+02 0.436482466961D-08 0.264979439670D+01
    0.222213566303D-05 0.897002406418D-02 0.743940472603D-05 0.515368622589D+04
    0.936000000000D+05 0.912696123123D-07 0.124965843720D+01-0.745058059692D-07
    0.962720529426D+00 0.234468750000D+03 0.142767962895D+01-0.771317842770D-08
   -0.270368404786D-09 0.100000000000D+01 0.230600000000D+04 0.000000000000D+00
    0.200000000000D+01 0.000000000000D+00-0.125728547573D-07 0.690000000000D+02
    0.864180000000D+05 0.400000000000D+01 0.000000000000D+00 0.000000000000D+00
13 24  3 18  2  0  0.0 0.635054428130D-03 0.329691829393D-11 0.000000000000D+00
    0.650000000000D+02-0.497812500000D+02 0.431196532495D-08-0.356221544160D+00
   -0.255741178989D-05 0.785773724783D-02 0.878237187862D-05 0.515365727425D+04
    0.936000000000D+05-0.447034835815D-07-0.772884588900D+00 0.119209289551D-06
    0.971169769325D+00 0.213468750000D+03 0.930421751549D+00-0.793425906517D-08
    0.150363406097D-09 0.100000000000D+01 0.230600000000D+04 0.000000000000D+00
    0.200000000000D+01 0.000000000000D+00-0.111758708954D-07 0.650000000000D+02
    0.896520000000D+05 0.400000000000D+01 0.000000000000D+00 0.000000000000D+00
14 24  3 18  2  0  0.0 0.353243667632D-03 0.977706804406D-11 0.000000000000D+00
    0.179000000000D+03 0.370937500000D+02 0.481520057243D-08 0.267289439104D+01
    0.203400850296D-05 0.413502403535D-02 0.732764601708D-05 0.515369306755D+04
    0.936000000000D+05-0.707805156708D-07 0.120629884586D+01 0.372529029846D-08
    0.946077723820D+00 0.228968750000D+03-0.295700388861D+01-0.806212153401D-08
   -0.165364030933D-09 0.100000000000D+01 0.230600000000D+04 0.000000000000D+00
    0.200000000000D+01 0.000000000000D+00-0.791624188423D-08 0.435000000000D+03
    0.864180000000D+05 0.400000000000D+01 0.000000000000D+00 0.000000000000D+00
15 24  3 18  2  0  0.0 0.138777773827D-03 0.397903932026D-11 0.000000000000D+00
    0.540000000000D+02-0.674062500000D+02 0.513021369399D-08-0.102661854847D+01
   -0.331178307533D-05 0.154776534764D-01 0.851787626743D-05 0.515362236023D+04
    0.936000000000D+05-0.132247805595D-06-0.106385173148D+01 0.376254320145D-06
    0.934637815622D+00 0.200343750000D+03 0.129588590242D+01-0.840570727430D-08
    0.939324840936D-10 0.100000000000D+01 0.230600000000D+04 0.000000000000D+00
    0.200000000000D+01 0.000000000000D+00-0.102445483208D-07 0.540000000000D+02
    0.892260000000D+05 0.400000000000D+01 0.000000000000D+00 0.000000000000D+00
16 24  3 18  2  0  0.0-0.338647980243D-03 0.886757334229D-11 0.000000000000D+00
    0.480000000000D+02 0.305312500000D+02 0.451625954891D-08 0.890407450096D+00
    0.174157321453D-05 0.140018861275D-01 0.794604420662D-05 0.515374595642D+04
    0.936000000000D+05-0.225380063057D-06 0.126760803095D+01 0.577419996262D-07
    0.962233541552D+00 0.229468750000D+03 0.833257417179D+00-0.808783689087D-08
   -0.397159400426D-09 0.100000000000D+01 0.230600000000D+04 0.000000000000D+00
    0.200000000000D+01 0.000000000000D+00-0.102445483208D-07 0.480000000000D+02
    0.864180000000D+05 0.400000000000D+01 0.000000000000D+00 0.000000000000D+00
18 24  3 18  2  0  0.0-0.577580649406D-03-0.738964445190D-11 0.000000000000D+00
    0.231000000000D+03 0.284375000000D+02 0.430910806308D-08-0.207928892936D+01
    0.137276947498D-05 0.389110774268D-02 0.379048287869D-05 0.515362067795D+04
    0.936000000000D+05-0.204890966415D-07-0.298979663687D+01-0.856816768646D-07
    0.974801690209D+00 0.316562500000D+03-0.303123702159D+01-0.812069540242D-08
    0.132505519387D-09 0.100000000000D+01 0.230600000000D+04 0.000000000000D+00
    0.200000000000D+01 0.000000000000D+00-0.838190317154D-08 0.743000000000D+03
    0.864180000000D+05 0.400000000000D+01 0.000000000000D+00 0.000000000000D+00
19 24  3 18  2  0  0.0 0.455458648503D-03 0.534328137292D-11 0.000000000000D+00
    0.570000000000D+02 0.667500000000D+02 0.426732060818D-08 0.199316845469D+01
    0.338628888130D-05 0.959544733632D-02 0.633858144283D-05 0.515369652176D+04
    0.936000000000D+05 0.102445483208D-06 0.233355359465D+01 0.894069671631D-07
    0.969073539380D+00 0.260062500000D+03 0.249510196310D+01-0.785354141724D-08
   -0.178578867098D-09 0.100000000000D+01 0.230600000000D+04 0.000000000000D+00
    0.200000000000D+01 0.000000000000D+00-0.153668224812D-07 0.570000000000D+02
    0.913020000000D+05 0.400000000000D+01 0.000000000000D+00 0.000000000000D+00
20 24  3 18  2  0  0.0 0.383544713259D-03-0.136424205266D-11 0.000000000000D+00
    0.450000000000D+02-0.709687500000D+02 0.479734268572D-08-0.156277810645D+01
   -0.350922346115D-05 0.375226140022D-02 0.452436506748D-05 0.515374824142D+04
    0.936000000000D+05 0.428408384323D-07-0.213641446864D+01 0.223517417908D-07
    0.952683662070D+00 0.287718750000D+03-0.260568622287D+01-0.829891711178D-08
    0.532165023952D-10 0.100000000000D+01 0.230600000000D+04 0.000000000000D+00
    0.200000000000D+01 0.000000000000D+00-0.838190317154D-08 0.450000000000D+02
    0.864180000000D+05 0.400000000000D+01 0.000000000000D+00 0.000000000000D+00
21 24  3 18  2  0  0.0 0.130938366055D-03-0.147792889038D-11 0.000000000000D+00
    0.104000000000D+03 0.244062500000D+02 0.471769651100D-08-0.157493204887D+00
    0.108964741230D-05 0.252911575371D-01 0.431574881077D-05 0.515370871162D+04
    0.936000000000D+05 0.143423676491D-06-0.309832313705D+01-0.400468707085D-06
    0.962051828109D+00 0.299843750000D+03-0.606887284686D+00-0.859000066515D-08
    0.121790787361D-09 0.100000000000D+01 0.230600000000D+04 0.000000000000D+00
    0.200000000000D+01 0.000000000000D+00-0.102445483208D-07 0.104000000000D+03
    0.864180000000D+05 0.400000000000D+01 0.000000000000D+00 0.000000000000D+00
22 24  3 18  2  0  0.0 0.143367797136D-04-0.591171556152D-11 0.000000000000D+00
    0.990000000000D+02 0.345000000000D+02 0.460554898246D-08 0.476801681778D+00
    0.173412263393D-05 0.144149110420D-01 0.752508640289D-05 0.515371113777D+04
    0.936000000000D+05-0.689178705216D-07 0.127090837121D+01-0.171363353729D-06
    0.961535887623D+00 0.236593750000D+03-0.113922753660D+01-0.822391398760D-08
   -0.203937066226D-09 0.100000000000D+01 0.230600000000D+04 0.000000000000D+00
    0.200000000000D+01 0.000000000000D+00-0.111758708954D-07 0.990000000000D+02
    0.868980000000D+05 0.400000000000D+01 0.000000000000D+00 0.000000000000D+00
